*******************************************************************************
JPL/HORIZONS                 17 Thetis (A852 HA)           2023-Sep-04 11:03:54
Rec #:      17 (+COV) Soln.date: 2023-Aug-22_09:07:32  # obs: 10739 (1852-2023)
 
IAU76/J2000 helio. ecliptic osc. elements (au, days, deg., period=Julian yrs):
 
  EPOCH=  2457327.5 ! 2015-Nov-01.00 (TDB)         Residual RMS= .33875
   EC= .1323132313999456   QR= 2.143638269736313   TP= 2457404.4424102246
   OM= 125.5660900155375   W=  136.0479691762746   IN= 5.590696196339414
   A= 2.470520869178296    MA= 340.4706823183299   ADIST= 2.797403468620278
   PER= 3.88321            N= .253817337           ANGMOM= .026800351
   DAN= 2.68282            DDN= 2.21617            L= 261.7505519
   B= 3.8770592            MOID= 1.13312995        TP= 2016-Jan-16.9424102246
 
Asteroid physical parameters (km, seconds, rotational period in hours):
   GM= n.a.                RAD= 42.4495            ROTPER= 12.27048
   H= 7.94                 G= .150                 B-V= .829
                           ALBEDO= .193            STYP= Sl

ASTEROID comments: 
1: soln ref.= JPL#136, OCC=0
2: source=ORB
*******************************************************************************


*******************************************************************************
Ephemeris / API_USER Mon Sep  4 11:03:54 2023 Pasadena, USA      / Horizons
*******************************************************************************
Target body name: 17 Thetis (A852 HA)             {source: JPL#136}
Center body name: Solar System Barycenter (0)     {source: DE441}
Center-site name: BODY CENTER
*******************************************************************************
Start time      : A.D. 2023-Aug-12 00:00:00.0000 TDB
Stop  time      : A.D. 2023-Aug-13 00:00:00.0000 TDB
Step-size       : 2880 minutes
*******************************************************************************
Center geodetic : 0.0, 0.0, 0.0                   {E-lon(deg),Lat(deg),Alt(km)}
Center cylindric: 0.0, 0.0, 0.0                   {E-lon(deg),Dxy(km),Dz(km)}
Center radii    : (undefined)
Small perturbers: Yes                             {source: SB441-N16}
Output units    : KM-S
Calendar mode   : Mixed Julian/Gregorian
Output type     : GEOMETRIC cartesian states
Output format   : 2 (position and velocity)
Reference frame : Ecliptic of J2000.0
*******************************************************************************
Initial IAU76/J2000 heliocentric ecliptic osculating elements (au, days, deg.):
  EPOCH=  2457327.5 ! 2015-Nov-01.00 (TDB)         Residual RMS= .33875        
   EC= .1323132313999456   QR= 2.143638269736313   TP= 2457404.4424102246      
   OM= 125.5660900155375   W=  136.0479691762746   IN= 5.590696196339414       
  Equivalent ICRF heliocentric cartesian coordinates (au, au/d):
   X=-1.201534606925836E+00  Y=-1.724774156348001E+00  Z=-5.321669536914706E-01
  VX= 1.059068207057285E-02 VY=-5.667266336227928E-03 VZ=-2.979970422131285E-03
Asteroid physical parameters (km, seconds, rotational period in hours):        
   GM= n.a.                RAD= 42.4495            ROTPER= 12.27048            
   H= 7.94                 G= .150                 B-V= .829                   
                           ALBEDO= .193            STYP= Sl                    
*******************************************************************************
JDTDB
   X     Y     Z
   VX    VY    VZ
*******************************************************************************
$$SOE
2460168.500000000 = A.D. 2023-Aug-12 00:00:00.0000 TDB 
 X =-1.746534595352830E+08 Y =-2.723401580107070E+08 Z = 2.932761492919637E+07
 VX= 1.857814253045299E+01 VY=-1.072332361211931E+01 VZ=-8.703264655565479E-01
$$EOE
*******************************************************************************
 
TIME

  Barycentric Dynamical Time ("TDB" or T_eph) output was requested. This
continuous coordinate time is equivalent to the relativistic proper time
of a clock at rest in a reference frame co-moving with the solar system
barycenter but outside the system's gravity well. It is the independent
variable in the solar system relativistic equations of motion.

  TDB runs at a uniform rate of one SI second per second and is independent
of irregularities in Earth's rotation.
 
CALENDAR SYSTEM

  Mixed calendar mode was active such that calendar dates after AD 1582-Oct-15
(if any) are in the modern Gregorian system. Dates prior to 1582-Oct-5 (if any)
are in the Julian calendar system, which is automatically extended for dates
prior to its adoption on 45-Jan-1 BC.  The Julian calendar is useful for
matching historical dates. The Gregorian calendar more accurately corresponds
to the Earth's orbital motion and seasons. A "Gregorian-only" calendar mode is
available if such physical events are the primary interest.

REFERENCE FRAME AND COORDINATES

  Ecliptic at the standard reference epoch

    Reference epoch: J2000.0
    X-Y plane: adopted Earth orbital plane at the reference epoch
               Note: IAU76 obliquity of 84381.448 arcseconds wrt ICRF X-Y plane
    X-axis   : ICRF
    Z-axis   : perpendicular to the X-Y plane in the directional (+ or -) sense
               of Earth's north pole at the reference epoch.

  Symbol meaning:

    JDTDB    Julian Day Number, Barycentric Dynamical Time
      X      X-component of position vector (km)
      Y      Y-component of position vector (km)
      Z      Z-component of position vector (km)
      VX     X-component of velocity vector (km/sec)                           
      VY     Y-component of velocity vector (km/sec)                           
      VZ     Z-component of velocity vector (km/sec)                           

ABERRATIONS AND CORRECTIONS

 Geometric state vectors have NO corrections or aberrations applied.

Computations by ...

    Solar System Dynamics Group, Horizons On-Line Ephemeris System
    4800 Oak Grove Drive, Jet Propulsion Laboratory
    Pasadena, CA  91109   USA

    General site: https://ssd.jpl.nasa.gov/
    Mailing list: https://ssd.jpl.nasa.gov/email_list.html
    System news : https://ssd.jpl.nasa.gov/horizons/news.html
    User Guide  : https://ssd.jpl.nasa.gov/horizons/manual.html
    Connect     : browser        https://ssd.jpl.nasa.gov/horizons/app.html#/x
                  API            https://ssd-api.jpl.nasa.gov/doc/horizons.html
                  command-line   telnet ssd.jpl.nasa.gov 6775
                  e-mail/batch   https://ssd.jpl.nasa.gov/ftp/ssd/hrzn_batch.txt
                  scripts        https://ssd.jpl.nasa.gov/ftp/ssd/SCRIPTS
    Author      : Jon.D.Giorgini@jpl.nasa.gov
*******************************************************************************
